[{"OBJECT_NAME":"STARLINK-4793","OBJECT_ID":"2022-114BB","EPOCH":"2026-03-09T18:31:58.058400","MEAN_MOTION":15.08848836,"ECCENTRICITY":0.00015566,"INCLINATION":53.216,"RA_OF_ASC_NODE":273.8145,"ARG_OF_PERICENTER":83.5223,"MEAN_ANOMALY":276.5946,"EPHEMERIS_TYPE":0,"CLASSIFICATION_TYPE":"U","NORAD_CAT_ID":53867,"ELEMENT_SET_NO":999,"REV_AT_EPOCH":19326,"BSTAR":5.130695e-5,"MEAN_MOTION_DOT":5.29e-6,"MEAN_MOTION_DDOT":0},{"OBJECT_NAME":"STARLING 3","OBJECT_ID":"2023-100D","EPOCH":"2026-03-09T22:41:57.048288","MEAN_MOTION":15.11145977,"ECCENTRICITY":0.00066311,"INCLINATION":99.5096,"RA_OF_ASC_NODE":65.6477,"ARG_OF_PERICENTER":76.1122,"MEAN_ANOMALY":284.0839,"EPHEMERIS_TYPE":0,"CLASSIFICATION_TYPE":"U","NORAD_CAT_ID":57389,"ELEMENT_SET_NO":999,"REV_AT_EPOCH":14507,"BSTAR":0.00051487914,"MEAN_MOTION_DOT":8.551e-5,"MEAN_MOTION_DDOT":0}]
